[{"OBJECT_NAME":"LASARSAT","OBJECT_ID":"2024-247Q","EPOCH":"2026-03-08T09:18:51.031296","MEAN_MOTION":15.40076521,"ECCENTRICITY":0.0002457,"INCLINATION":44.9748,"RA_OF_ASC_NODE":105.9976,"ARG_OF_PERICENTER":26.6184,"MEAN_ANOMALY":333.4829,"EPHEMERIS_TYPE":0,"CLASSIFICATION_TYPE":"U","NORAD_CAT_ID":62391,"ELEMENT_SET_NO":999,"REV_AT_EPOCH":6774,"BSTAR":0.0011460197,"MEAN_MOTION_DOT":0.00046774,"MEAN_MOTION_DDOT":0},{"OBJECT_NAME":"STARLINK-34695","OBJECT_ID":"2025-157N","EPOCH":"2026-03-09T22:15:17.480160","MEAN_MOTION":15.39856376,"ECCENTRICITY":8.968e-5,"INCLINATION":53.161,"RA_OF_ASC_NODE":342.1869,"ARG_OF_PERICENTER":113.2486,"MEAN_ANOMALY":246.8614,"EPHEMERIS_TYPE":0,"CLASSIFICATION_TYPE":"U","NORAD_CAT_ID":64916,"ELEMENT_SET_NO":999,"REV_AT_EPOCH":3619,"BSTAR":0.0019591216,"MEAN_MOTION_DOT":0.000794,"MEAN_MOTION_DDOT":0}]
